COSMOS 2419 (714)       
1 28915U 05050A   16172.42269117 -.00000021  00000-0  00000+0 0  9997
2 28915  65.3235  78.0547 0016989 351.1938 108.9761  2.13110720 81621
COSMOS 2425 (716)       
1 29670U 06062A   16172.25401118 -.00000041  00000-0  10000-3 0  9997
2 29670  65.6323 317.0512 0020775 350.8583  37.4864  2.13104904 73829
COSMOS 2426 (717)       
1 29671U 06062B   16172.45520200 -.00000039  00000-0  10000-3 0  9991
2 29671  65.6497 317.1265 0017870 158.8835 244.6976  2.13102899 73834
COSMOS 2424 (715)       
1 29672U 06062C   16172.25419030 -.00000041  00000-0  10000-3 0  9991
2 29672  65.6342 317.0616 0017349 157.7843 267.8862  2.13102253 73825
COSMOS 2433 (720)       
1 32275U 07052A   16172.35794376 -.00000022  00000-0  10000-3 0  9993
2 32275  65.3390  77.8279 0003102 293.4139   6.6957  2.13104733 67330
COSMOS 2432 (719)       
1 32276U 07052B   16172.15477022 -.00000024  00000-0  10000-3 0  9990
2 32276  65.3507  77.9007 0013226 338.4830 119.5646  2.13104213 67339
COSMOS 2434 (721)       
1 32393U 07065A   16172.18476182 -.00000042  00000-0  00000+0 0  9998
2 32393  65.2508 316.3748 0005923 106.2957 312.9528  2.13102825 66049
COSMOS 2436 (723)       
1 32395U 07065C   16171.99799238 -.00000043  00000-0  10000-3 0  9994
2 32395  65.2638 316.4238 0016645   0.6303   7.3537  2.13102858 65977
COSMOS 2443 (725)       
1 33379U 08046B   16171.65510557 -.00000028  00000-0  10000-3 0  9998
2 33379  65.2675  77.2681 0016172 186.5554 199.4226  2.13101358 60193
COSMOS 2456 (730)       
1 36111U 09070A   16171.57656630  .00000098  00000-0  00000+0 0  9998
2 36111  64.1818 195.9834 0006142 297.3711 184.8469  2.13102894 50694
COSMOS 2457 (733)       
1 36112U 09070B   16171.78552126  .00000097  00000-0  00000-0 0  9997
2 36112  64.1642 195.9033 0006799 187.1246 225.6368  2.13101555 50705
COSMOS 2458 (734)       
1 36113U 09070C   16171.87026331  .00000097  00000-0  10000-3 0  9996
2 36113  64.1696 195.9056 0002336 293.9580 231.3569  2.13102053 50701
COSMOS 2459 (731)       
1 36400U 10007A   16172.42626061 -.00000022  00000-0  10000-3 0  9994
2 36400  65.2466  76.9762 0029705 353.0233 224.8219  2.13102371 49060
COSMOS 2461 (735)       
1 36401U 10007B   16171.60075620 -.00000029  00000-0  10000-3 0  9990
2 36401  65.2396  76.9856 0006752  57.5344 157.5782  2.13102456 49042
COSMOS 2460 (732)       
1 36402U 10007C   16171.56744005 -.00000029  00000-0  10000-3 0  9996
2 36402  65.2296  76.9635 0001677 352.0296 239.3903  2.13101903 49047
COSMOS 2465 (737)       
1 37138U 10041B   16172.47161681 -.00000041  00000-0  00000+0 0  9994
2 37138  64.8506 316.5354 0035570 167.8107 156.1684  2.13093901 45132
COSMOS 2464 (736)       
1 37139U 10041C   16172.08299991 -.00000043  00000-0  00000+0 0  9990
2 37139  64.8571 316.5460 0022866  17.3012 191.5744  2.13102591 45137
COSMOS 2471 (701K)      
1 37372U 11009A   16171.78836023 -.00000027  00000-0  00000+0 0  9995
2 37372  65.2273  76.9053 0007393 242.7598 290.7406  2.13102734 41329
COSMOS 2474 (742)       
1 37829U 11055A   16171.73682899  .00000098  00000-0  00000-0 0  9996
2 37829  64.5061 196.3915 0010405 253.8560 212.7201  2.13101935 36690
COSMOS 2476 (744)       
1 37867U 11064A   16171.88681544  .00000097  00000-0  00000+0 0  9998
2 37867  64.4857 196.4674 0019292 248.2016  19.2786  2.13102028 36045
COSMOS 2477 (745)       
1 37868U 11064B   16172.27533655  .00000096  00000-0  00000+0 0  9991
2 37868  64.4950 196.4948 0017352 249.6080 135.2332  2.13101884 36017
COSMOS 2475 (743)       
1 37869U 11064C   16171.57221499  .00000099  00000-0  00000-0 0  9998
2 37869  64.5018 196.5065 0022657 273.8049 247.7482  2.13102012 36001
COSMOS 2485 (747)       
1 39155U 13019A   16171.88123995  .00000098  00000-0  00000+0 0  9994
2 39155  64.6556 196.4185 0019667 243.4981  64.8329  2.13102058 24517
COSMOS 2492 (754)       
1 39620U 14012A   16172.52852256 -.00000017  00000-0  10960+2 0  9996
2 39620  65.1196  76.9184 0016724 334.7038 143.4389  2.13103620 17483
COSMOS 2500 (755)       
1 40001U 14032A   16171.66365312 -.00000029  00000-0  00000-0 0  9995
2 40001  65.0589  76.9724 0004845 216.8615 181.5184  2.13102988 15687
COSMOS 2501 (702K)      
1 40315U 14075A   16171.92108807 -.00000045  00000-0  00000-0 0  9991
2 40315  64.6229 318.0070 0016493 231.4363 165.6365  2.13101574 12096
COSMOS 2514 (751)       
1 41330U 16008A   16172.09799358 -.00000025  00000-0  00000+0 0  9990
2 41330  64.8597  77.1925 0008118 222.8965 327.7383  2.13103552  2855
COSMOS 2516 (753)       
1 41554U 16032A   16167.76302377  .00000000  00000-0  10000-3 0  9991
2 41554  64.8050 317.8268 0009991 217.7043 142.2244  2.13101022   361
